OBJECT_NAME,OBJECT_ID,EPOCH,MEAN_MOTION,ECCENTRICITY,INCLINATION,RA_OF_ASC_NODE,ARG_OF_PERICENTER,MEAN_ANOMALY,EPHEMERIS_TYPE,CLASSIFICATION_TYPE,NORAD_CAT_ID,ELEMENT_SET_NO,REV_AT_EPOCH,BSTAR,MEAN_MOTION_DOT,MEAN_MOTION_DDOT
PROBA-1,2001-049B,2026-06-22T20:16:51.965760,15.07510781,.00563075,97.9597,182.5748,103.3555,257.3958,0,U,26958,999,34447,.11905832E-3,.1802E-4,0
CUTE-1 (CO-55),2003-031E,2026-06-22T17:27:15.352992,14.24338450,.00098661,98.6736,182.2165,162.2410,197.9116,0,U,27844,999,19246,.10595143E-3,.201E-5,0
CUBESAT XI-IV (CO-57),2003-031J,2026-06-22T10:29:48.420672,14.23623160,.00093886,98.6767,181.6388,181.3421,178.7734,0,U,27848,999,19212,.96418739E-4,.176E-5,0
APRIZESAT 4,2009-041D,2026-06-22T01:04:20.504064,14.83884178,.00421395,98.1411,248.4620,306.9157,52.8199,0,U,35684,999,91208,.57768208E-4,.427E-5,0
APRIZESAT 3,2009-041F,2026-06-22T09:10:09.977088,14.96257121,.00627562,98.2072,326.8548,50.9097,309.7681,0,U,35686,999,91715,.12484929E-3,.1398E-4,0
PROBA-2,2009-059B,2026-06-22T17:49:13.374624,14.54864237,.0011944,98.2453,357.0182,263.0241,96.9598,0,U,36037,999,88233,.38444674E-4,.12E-5,0
APRIZESAT 5,2011-044E,2026-06-22T13:07:45.066432,14.81085352,.00518979,98.2451,106.7393,347.0612,12.9265,0,U,37792,999,79958,.10352944E-3,.762E-5,0
APRIZESAT 6,2011-044F,2026-06-22T12:30:28.048608,14.76922393,.00444082,98.2359,84.1295,69.4868,109.5062,0,U,37793,999,79793,.8376366E-4,.542E-5,0
PROBA-V,2013-021A,2026-06-22T16:07:10.540992,14.23597930,.00053385,98.3586,152.0076,110.8864,249.2887,0,U,39159,999,68189,.41346626E-4,.53E-6,0
APRIZESAT 7,2013-066A,2026-06-22T15:43:07.151232,14.91572744,.00354541,97.7709,126.7963,190.7238,169.3229,0,U,39416,999,68204,.60844841E-4,.559E-5,0
APRIZESAT 8,2013-066K,2026-06-22T14:09:01.154016,14.87660607,.00443235,97.8221,120.9821,268.1711,91.4429,0,U,39425,999,68047,.72863149E-4,.617E-5,0
BUGSAT-1 (TITA),2014-033E,2026-06-22T20:18:25.479936,15.15638095,.00285094,98.0426,266.7261,159.1597,201.0803,0,U,40014,999,65669,.21355929E-3,.4024E-4,0
SAUDISAT 4,2014-033G,2026-06-22T15:56:49.996320,14.79550318,.00459568,97.7590,319.6097,56.6864,303.8736,0,U,40016,999,64688,.63916945E-4,.435E-5,0
APRIZESAT 9,2014-033J,2026-06-22T15:18:03.748896,14.74220729,.00661224,97.9068,306.7031,181.5913,178.5096,0,U,40018,999,64436,.83035138E-4,.515E-5,0
APRIZESAT 10,2014-033K,2026-06-22T07:07:17.643936,14.70886265,.00774425,97.9656,300.1423,257.2332,102.0212,0,U,40019,999,64300,.61915487E-4,.343E-5,0
TECHDEMOSAT-1 (TDS-1),2014-037H,2026-06-22T10:45:21.265920,15.13358725,.00047108,98.3821,166.1826,240.8294,119.2464,0,U,40076,999,64902,.34848575E-3,.6139E-4,0
TECHNOSAT,2017-042E,2026-06-22T16:49:51.648672,15.04990658,.0019324,97.4297,331.1496,77.1054,283.2330,0,U,42829,999,48753,.16899968E-3,.2347E-4,0
FLYING LAPTOP,2017-042G,2026-06-22T20:25:58.163232,15.01178099,.00198232,97.4715,329.1672,103.5162,256.8273,0,U,42831,999,48730,.23950464E-3,.3026E-4,0
HAWK-A,2018-099H,2026-06-22T01:45:49.186944,15.24688883,.00330849,97.3908,225.2457,267.7576,91.9873,0,U,43765,999,41384,.18737228E-3,.4629E-4,0
HAWK-B,2018-099AN,2026-06-22T02:25:13.342368,15.22868435,.00302461,97.3960,224.6775,286.7636,73.0282,0,U,43794,999,41378,.18646126E-3,.4349E-4,0
HAWK-C,2018-099AT,2026-06-22T02:30:23.743008,15.28158938,.00386942,97.3888,226.2128,267.5671,92.1138,0,U,43799,999,41466,.20375034E-3,.5638E-4,0
SALSAT,2020-068K,2026-06-22T07:30:24.147072,15.29860164,.0007816,97.8856,176.6896,286.6046,73.4334,0,U,46495,999,31614,.20010299E-3,.5705E-4,0
HAWK-2C,2021-006CT,2026-06-22T08:50:34.015200,15.34715205,.00072831,97.2278,217.5750,168.0111,192.1307,0,U,47502,999,30029,.1501234E-3,.4976E-4,0
HAWK-2A,2021-006CW,2026-06-22T08:54:05.016096,15.34729732,.00067217,97.2321,218.2583,170.8017,189.3351,0,U,47505,999,30029,.1486221E-3,.4927E-4,0
HAWK-2B,2021-006CZ,2026-06-22T16:36:37.561824,15.34828774,.00073315,97.2191,216.8960,168.4939,191.6473,0,U,47508,999,30034,.16714311E-3,.557E-4,0
HAWK-3B,2021-059BE,2026-06-22T11:42:16.474752,15.69964919,.00031406,97.6665,10.6985,301.9747,58.1209,0,U,48931,999,27868,.29493432E-3,.35305E-3,0
HAWK-3C,2021-059BX,2026-06-22T11:41:49.287264,15.69963195,.00034096,97.6780,16.3926,304.7254,55.3686,0,U,48948,999,27868,.34026296E-3,.40776E-3,0
HAWK-3A,2021-059CG,2026-06-22T11:41:35.131488,15.69963595,.00033265,97.6725,13.5935,306.7504,53.3452,0,U,48957,999,27868,.3135049E-3,.37545E-3,0
HAWK-5C,2022-057Y,2026-06-22T09:32:13.403904,15.51550082,.00046419,97.6605,333.4006,67.2555,292.9186,0,U,52754,999,22715,.24436794E-3,.14376E-3,0
HAWK-5B,2022-057AA,2026-06-22T17:16:21.071712,15.51560937,.00052942,97.6615,332.0938,58.8727,301.3043,0,U,52756,999,22720,.25120581E-3,.14789E-3,0
