PROBA-1                 
1 26958U 01049B   26173.84504590  .00001802  00000+0  11906-3 0  9998
2 26958  97.9597 182.5748 0056307 103.3555 257.3958 15.07510781344472
CUTE-1 (CO-55)          
1 27844U 03031E   26173.72726103  .00000201  00000+0  10595-3 0  9994
2 27844  98.6736 182.2165 0009866 162.2410 197.9116 14.24338450192466
CUBESAT XI-IV (CO-57)   
1 27848U 03031J   26173.43736598  .00000176  00000+0  96419-4 0  9996
2 27848  98.6767 181.6388 0009388 181.3421 178.7734 14.23623160192127
APRIZESAT 4             
1 35684U 09041D   26173.04468176  .00000427  00000+0  57768-4 0  9994
2 35684  98.1411 248.4620 0042139 306.9157  52.8199 14.83884178912084
APRIZESAT 3             
1 35686U 09041F   26173.38205992  .00001398  00000+0  12485-3 0  9992
2 35686  98.2072 326.8548 0062756  50.9097 309.7681 14.96257121917155
PROBA-2                 
1 36037U 09059B   26173.74251591  .00000120  00000+0  38445-4 0  9995
2 36037  98.2453 357.0182 0011944 263.0241  96.9598 14.54864237882339
APRIZESAT 5             
1 37792U 11044E   26173.54704938  .00000762  00000+0  10353-3 0  9996
2 37792  98.2451 106.7393 0051897 347.0612  12.9265 14.81085352799581
APRIZESAT 6             
1 37793U 11044F   26173.52115797  .00000542  00000+0  83764-4 0  9997
2 37793  98.2359  84.1295 0044408  69.4868 109.5062 14.76922393797931
PROBA-V                 
1 39159U 13021A   26173.67164978  .00000053  00000+0  41347-4 0  9991
2 39159  98.3586 152.0076 0005338 110.8864 249.2887 14.23597930681891
APRIZESAT 7             
1 39416U 13066A   26173.65494388  .00000559  00000+0  60845-4 0  9990
2 39416  97.7709 126.7963 0035454 190.7238 169.3229 14.91572744682045
APRIZESAT 8             
1 39425U 13066K   26173.58959669  .00000617  00000+0  72863-4 0  9998
2 39425  97.8221 120.9821 0044323 268.1711  91.4429 14.87660607680478
BUGSAT-1 (TITA)         
1 40014U 14033E   26173.84612824  .00004024  00000+0  21356-3 0  9993
2 40014  98.0426 266.7261 0028509 159.1597 201.0803 15.15638095656690
SAUDISAT 4              
1 40016U 14033G   26173.66446755  .00000435  00000+0  63917-4 0  9995
2 40016  97.7590 319.6097 0045956  56.6864 303.8736 14.79550318646884
APRIZESAT 9             
1 40018U 14033J   26173.63754339  .00000515  00000+0  83035-4 0  9996
2 40018  97.9068 306.7031 0066122 181.5913 178.5096 14.74220729644366
APRIZESAT 10            
1 40019U 14033K   26173.29673199  .00000343  00000+0  61915-4 0  9995
2 40019  97.9656 300.1423 0077442 257.2332 102.0212 14.70886265643007
TECHDEMOSAT-1 (TDS-1)   
1 40076U 14037H   26173.44816280  .00006139  00000+0  34849-3 0  9993
2 40076  98.3821 166.1826 0004710 240.8294 119.2464 15.13358725649029
TECHNOSAT               
1 42829U 17042E   26173.70129223  .00002347  00000+0  16900-3 0  9998
2 42829  97.4297 331.1496 0019324  77.1054 283.2330 15.04990658487530
FLYING LAPTOP           
1 42831U 17042G   26173.85136763  .00003026  00000+0  23950-3 0  9992
2 42831  97.4715 329.1672 0019823 103.5162 256.8273 15.01178099487300
HAWK-A                  
1 43765U 18099H   26173.07348596  .00004629  00000+0  18737-3 0  9992
2 43765  97.3908 225.2457 0033084 267.7576  91.9873 15.24688883413848
HAWK-B                  
1 43794U 18099AN  26173.10084887  .00004349  00000+0  18646-3 0  9996
2 43794  97.3960 224.6775 0030246 286.7636  73.0282 15.22868435413788
HAWK-C                  
1 43799U 18099AT  26173.10444147  .00005638  00000+0  20375-3 0  9994
2 43799  97.3888 226.2128 0038694 267.5671  92.1138 15.28158938414669
SALSAT                  
1 46495U 20068K   26173.31277948  .00005705  00000+0  20010-3 0  9996
2 46495  97.8856 176.6896 0007816 286.6046  73.4334 15.29860164316141
HAWK-2C                 
1 47502U 21006CT  26173.36844925  .00004976  00000+0  15012-3 0  9994
2 47502  97.2278 217.5750 0007283 168.0111 192.1307 15.34715205300290
HAWK-2A                 
1 47505U 21006CW  26173.37089139  .00004927  00000+0  14862-3 0  9994
2 47505  97.2321 218.2583 0006721 170.8017 189.3351 15.34729732300293
HAWK-2B                 
1 47508U 21006CZ  26173.69210141  .00005570  00000+0  16714-3 0  9994
2 47508  97.2191 216.8960 0007331 168.4939 191.6473 15.34828774300341
HAWK-3B                 
1 48931U 21059BE  26173.48769068  .00035305  00000+0  29493-3 0  9994
2 48931  97.6665  10.6985 0003140 301.9747  58.1209 15.69964919278689
HAWK-3C                 
1 48948U 21059BX  26173.48737601  .00040776  00000+0  34026-3 0  9996
2 48948  97.6780  16.3926 0003409 304.7254  55.3686 15.69963195278688
HAWK-3A                 
1 48957U 21059CG  26173.48721217  .00037545  00000+0  31350-3 0  9999
2 48957  97.6725  13.5935 0003326 306.7504  53.3452 15.69963595278687
HAWK-5C                 
1 52754U 22057Y   26173.39737736  .00014376  00000+0  24437-3 0  9996
2 52754  97.6605 333.4006 0004641  67.2555 292.9186 15.51550082227158
HAWK-5B                 
1 52756U 22057AA  26173.71968833  .00014789  00000+0  25121-3 0  9997
2 52756  97.6615 332.0938 0005294  58.8727 301.3043 15.51560937227205
